HODOYOSHI-4             
1 40011U 14033B   26178.52345605  .00001265  00000+0  14246-3 0  9994
2 40011  97.5451   2.8469 0022078 271.8268  88.0421 14.88148873650344
DEIMOS-2                
1 40013U 14033D   26178.49926436  .00000820  00000+0  82526-4 0  9992
2 40013  97.5826  52.6256 0001145  53.7590 306.3736 14.93751172639267
HODOYOSHI-3             
1 40015U 14033F   26178.42423604  .00001079  00000+0  13029-3 0  9994
2 40015  97.6425 341.0531 0031854 322.9752  36.9265 14.85408242649146
SPOT 7                  
1 40053U 14034A   26178.52339329  .00000679  00000+0  14789-3 0  9997
2 40053  98.0630 240.7489 0001362  95.3397 264.7959 14.60967716638648
SKYSAT-B                
1 40072U 14037D   26178.41335257  .00001295  00000+0  14764-3 0  9993
2 40072  98.3843 137.9614 0004286 237.6900 122.3900 14.88052302647487
WORLDVIEW-3 (WV-3)      
1 40115U 14048A   26178.47650410  .00000810  00000+0  10109-3 0  9991
2 40115  97.8564 253.1673 0000155  27.2226 332.8997 14.85037795643431
GAOFEN-2                
1 40118U 14049A   26178.51417127  .00000372  00000+0  55018-4 0  9998
2 40118  98.0111 242.7117 0006800 189.0734 171.0357 14.80908220640767
YAOGAN-21               
1 40143U 14053A   26178.52017286  .00010862  00000+0  41770-3 0  9998
2 40143  97.1473 218.3134 0009586  63.8170 296.4054 15.26526538656538
YAOGAN-22               
1 40275U 14063A   26178.37652980 -.00000019  00000+0  72698-4 0  9992
2 40275 100.7736 329.8194 0006569 162.8985 197.2348 13.15531246561158
ASNARO                  
1 40298U 14070A   26178.49824647  .00011072  00000+0  52276-3 0  9998
2 40298  97.3454 254.3347 0006366 135.3034 224.8715 15.19585090645574
YAOGAN-24               
1 40310U 14072A   26178.52060213 -.00000017  00000+0  53288-5 0  9994
2 40310  98.1495 315.9464 0013322 228.5073 131.4993 14.76095422625245
CBERS 4                 
1 40336U 14079A   26178.49249450  .00000351  00000+0  13657-3 0  9991
2 40336  98.3534 235.0010 0001549  53.9698 306.1632 14.35512475605436
YAOGAN-26               
1 40362U 14088A   26178.54404804  .00009905  00000+0  19279-3 0  9992
2 40362  97.0637 178.5125 0004777  41.8806 318.2810 15.47749405639300
SMAP                    
1 40376U 15003A   26178.47306969  .00000423  00000+0  91017-4 0  9997
2 40376  98.1276 185.4218 0001437  98.2882 261.8483 14.63375059609129
KOMPSAT-3A              
1 40536U 15014A   26178.47883299  .00027430  00000+0  38865-3 0  9991
2 40536  97.6882 170.5963 0057139 137.8160 222.7511 15.54490286623412
SENTINEL-2A             
1 40697U 15028A   26178.49441781  .00000158  00000+0  76946-4 0  9993
2 40697  98.5686 253.2001 0001177  93.7803 266.3514 14.30818189575208
GAOFEN-8                
1 40701U 15030A   26178.50769966  .00021304  00000+0  43257-3 0  9996
2 40701  97.6903  12.4992 0009560 151.3656 208.8119 15.46322222613044
CARBONITE 1 (CBNT-1)    
1 40718U 15032D   26178.50160374  .00001567  00000+0  19587-3 0  9992
2 40718  97.6508 356.1362 0012955 260.4416  99.5335 14.83615724590872
YAOGAN-27               
1 40878U 15040A   26178.51943303 -.00000288  00000+0 -64576-3 0  9999
2 40878 100.1152 164.4537 0007967 185.5595 174.5431 13.16070288519024
GAOFEN-9 01             
1 40894U 15047A   26178.52157431  .00001011  00000+0  13001-3 0  9994
2 40894  97.6271 213.7466 0028861 105.4903 254.9502 14.82902943581727
YAOGAN-28               
1 41026U 15064A   26178.54225992  .00006800  00000+0  25464-3 0  9998
2 41026  97.3082 316.5938 0011497 148.3276 211.8658 15.27546753592262
YAOGAN-29               
1 41038U 15069A   26178.50040264  .00000895  00000+0  11649-3 0  9997
2 41038  98.0027 207.1494 0002044  38.8255 321.3105 14.83094152572154
KENT RIDGE 1            
1 41167U 15077B   26178.37904035  .00004094  00000+0  13656-3 0  9994
2 41167  14.9780 190.1878 0008177  22.4763 337.5917 15.23188957582651
GAOFEN-4                
1 41194U 15083A   26176.90227766 -.00000324  00000+0  00000+0 0  9995
2 41194   0.3805  83.9226 0004051 113.8387 146.7998  1.00271078 38616
JASON-3                 
1 41240U 16002A   26178.48818029 -.00000075  00000+0 -49750-4 0  9996
2 41240  66.0415 104.1794 0008390 272.2835  87.7223 12.87623101488572
SENTINEL-3A             
1 41335U 16011A   26178.52566058  .00000096  00000+0  57593-4 0  9993
2 41335  98.6246 245.7607 0001438  96.7021 263.4323 14.26735302539536
ZIYUAN 3-02 (ZY 3-02)   
1 41556U 16033A   26178.51676715  .00005018  00000+0  22713-3 0  9997
2 41556  97.3839 254.0922 0012524 250.6302 109.3580 15.21273727559550
CARTOSAT-2C             
1 41599U 16040A   26178.46719247  .00002871  00000+0  13925-3 0  9993
2 41599  97.4486 238.3040 0010528 100.1358 260.1064 15.19267452555277
SKYSAT-C1               
1 41601U 16040C   26178.50700605  .00008807  00000+0  24955-3 0  9990
2 41601  96.9563 209.6680 0002463  37.0988 323.0427 15.36470057559450
LAPAN-A3                
1 41603U 16040E   26178.50353637  .00003895  00000+0  12376-3 0  9997
2 41603  97.1486 174.3104 0009576 349.6294  10.4750 15.33170494556397
GAOFEN-3                
1 41727U 16049A   26178.49067615  .00000337  00000+0  11541-3 0  9990
2 41727  98.4011 186.1211 0001610  96.8756 263.2617 14.42217763520130
