OBJECT_NAME,OBJECT_ID,EPOCH,MEAN_MOTION,ECCENTRICITY,INCLINATION,RA_OF_ASC_NODE,ARG_OF_PERICENTER,MEAN_ANOMALY,EPHEMERIS_TYPE,CLASSIFICATION_TYPE,NORAD_CAT_ID,ELEMENT_SET_NO,REV_AT_EPOCH,BSTAR,MEAN_MOTION_DOT,MEAN_MOTION_DDOT
HODOYOSHI-4,2014-033B,2026-06-27T12:33:46.602720,14.88148873,.0022078,97.5451,2.8469,271.8268,88.0421,0,U,40011,999,65034,.14246E-3,.1265E-4,0
DEIMOS-2,2014-033D,2026-06-27T11:58:56.440704,14.93751172,.0001145,97.5826,52.6256,53.7590,306.3736,0,U,40013,999,63926,.82526E-4,.82E-5,0
HODOYOSHI-3,2014-033F,2026-06-27T10:10:53.993856,14.85408242,.0031854,97.6425,341.0531,322.9752,36.9265,0,U,40015,999,64914,.13029E-3,.1079E-4,0
SPOT 7,2014-034A,2026-06-27T12:33:41.180256,14.60967716,.0001362,98.0630,240.7489,95.3397,264.7959,0,U,40053,999,63864,.14789E-3,.679E-5,0
SKYSAT-B,2014-037D,2026-06-27T09:55:13.662048,14.88052302,.0004286,98.3843,137.9614,237.6900,122.3900,0,U,40072,999,64748,.14764E-3,.1295E-4,0
WORLDVIEW-3 (WV-3),2014-048A,2026-06-27T11:26:09.954240,14.85037795,.0000155,97.8564,253.1673,27.2226,332.8997,0,U,40115,999,64343,.10109E-3,.81E-5,0
GAOFEN-2,2014-049A,2026-06-27T12:20:24.397728,14.80908220,.00068,98.0111,242.7117,189.0734,171.0357,0,U,40118,999,64076,.55018E-4,.372E-5,0
YAOGAN-21,2014-053A,2026-06-27T12:29:02.935104,15.26526538,.0009586,97.1473,218.3134,63.8170,296.4054,0,U,40143,999,65653,.4177E-3,.10862E-3,0
YAOGAN-22,2014-063A,2026-06-27T09:02:12.174720,13.15531246,.0006569,100.7736,329.8194,162.8985,197.2348,0,U,40275,999,56115,.72698E-4,-.19E-6,0
ASNARO,2014-070A,2026-06-27T11:57:28.495008,15.19585090,.0006366,97.3454,254.3347,135.3034,224.8715,0,U,40298,999,64557,.52276E-3,.11072E-3,0
YAOGAN-24,2014-072A,2026-06-27T12:29:40.024032,14.76095422,.0013322,98.1495,315.9464,228.5073,131.4993,0,U,40310,999,62524,.53288E-5,-.17E-6,0
CBERS 4,2014-079A,2026-06-27T11:49:11.524800,14.35512475,.0001549,98.3534,235.0010,53.9698,306.1632,0,U,40336,999,60543,.13657E-3,.351E-5,0
YAOGAN-26,2014-088A,2026-06-27T13:03:25.750656,15.47749405,.0004777,97.0637,178.5125,41.8806,318.2810,0,U,40362,999,63930,.19279E-3,.9905E-4,0
SMAP,2015-003A,2026-06-27T11:21:13.221216,14.63375059,.0001437,98.1276,185.4218,98.2882,261.8483,0,U,40376,999,60912,.91017E-4,.423E-5,0
KOMPSAT-3A,2015-014A,2026-06-27T11:29:31.170336,15.54490286,.0057139,97.6882,170.5963,137.8160,222.7511,0,U,40536,999,62341,.38865E-3,.2743E-3,0
SENTINEL-2A,2015-028A,2026-06-27T11:51:57.698784,14.30818189,.0001177,98.5686,253.2001,93.7803,266.3514,0,U,40697,999,57520,.76946E-4,.158E-5,0
GAOFEN-8,2015-030A,2026-06-27T12:11:05.250624,15.46322222,.000956,97.6903,12.4992,151.3656,208.8119,0,U,40701,999,61304,.43257E-3,.21304E-3,0
CARBONITE 1 (CBNT-1),2015-032D,2026-06-27T12:02:18.563136,14.83615724,.0012955,97.6508,356.1362,260.4416,99.5335,0,U,40718,999,59087,.19587E-3,.1567E-4,0
YAOGAN-27,2015-040A,2026-06-27T12:27:59.013792,13.16070288,.0007967,100.1152,164.4537,185.5595,174.5431,0,U,40878,999,51902,-.64576E-3,-.288E-5,0
GAOFEN-9 01,2015-047A,2026-06-27T12:31:04.020384,14.82902943,.0028861,97.6271,213.7466,105.4903,254.9502,0,U,40894,999,58172,.13001E-3,.1011E-4,0
YAOGAN-28,2015-064A,2026-06-27T13:00:51.257088,15.27546753,.0011497,97.3082,316.5938,148.3276,211.8658,0,U,41026,999,59226,.25464E-3,.68E-4,0
YAOGAN-29,2015-069A,2026-06-27T12:00:34.788096,14.83094152,.0002044,98.0027,207.1494,38.8255,321.3105,0,U,41038,999,57215,.11649E-3,.895E-5,0
KENT RIDGE 1,2015-077B,2026-06-27T09:05:49.086240,15.23188957,.0008177,14.9780,190.1878,22.4763,337.5917,0,U,41167,999,58265,.13656E-3,.4094E-4,0
GAOFEN-4,2015-083A,2026-06-25T21:39:16.789824,1.00271078,.00040511,0.3805,83.9226,113.8387,146.7998,0,U,41194,999,3861,0,-.324E-5,0
JASON-3,2016-002A,2026-06-27T11:42:58.777056,12.87623101,.000839,66.0415,104.1794,272.2835,87.7223,0,U,41240,999,48857,-.4975E-4,-.75E-6,0
SENTINEL-3A,2016-011A,2026-06-27T12:36:57.074112,14.26735302,.0001438,98.6246,245.7607,96.7021,263.4323,0,U,41335,999,53953,.57593E-4,.96E-6,0
ZIYUAN 3-02 (ZY 3-02),2016-033A,2026-06-27T12:24:08.681760,15.21273727,.0012524,97.3839,254.0922,250.6302,109.3580,0,U,41556,999,55955,.22713E-3,.5018E-4,0
CARTOSAT-2C,2016-040A,2026-06-27T11:12:45.429408,15.19267452,.0010528,97.4486,238.3040,100.1358,260.1064,0,U,41599,999,55527,.13925E-3,.2871E-4,0
SKYSAT-C1,2016-040C,2026-06-27T12:10:05.322720,15.36470057,.0002463,96.9563,209.6680,37.0988,323.0427,0,U,41601,999,55945,.24955E-3,.8807E-4,0
LAPAN-A3,2016-040E,2026-06-27T12:05:05.542368,15.33170494,.0009576,97.1486,174.3104,349.6294,10.4750,0,U,41603,999,55639,.12376E-3,.3895E-4,0
GAOFEN-3,2016-049A,2026-06-27T11:46:34.419360,14.42217763,.000161,98.4011,186.1211,96.8756,263.2617,0,U,41727,999,52013,.11541E-3,.337E-5,0
